[{"OBJECT_NAME":"STARLINK-35455","OBJECT_ID":"2025-240G","EPOCH":"2026-03-09T06:39:12.012768","MEAN_MOTION":15.30198458,"ECCENTRICITY":0.00012783,"INCLINATION":53.1588,"RA_OF_ASC_NODE":64.8501,"ARG_OF_PERICENTER":91.8307,"MEAN_ANOMALY":268.284,"EPHEMERIS_TYPE":0,"CLASSIFICATION_TYPE":"U","NORAD_CAT_ID":66152,"ELEMENT_SET_NO":999,"REV_AT_EPOCH":2192,"BSTAR":0.00089014376,"MEAN_MOTION_DOT":0.00026096,"MEAN_MOTION_DDOT":0},{"OBJECT_NAME":"KUIPER-00266","OBJECT_ID":"2026-030AB","EPOCH":"2026-03-08T21:54:37.698048","MEAN_MOTION":15.30874235,"ECCENTRICITY":0.0022313,"INCLINATION":51.8807,"RA_OF_ASC_NODE":223.5904,"ARG_OF_PERICENTER":72.5291,"MEAN_ANOMALY":287.8129,"EPHEMERIS_TYPE":0,"CLASSIFICATION_TYPE":"U","NORAD_CAT_ID":67789,"ELEMENT_SET_NO":999,"REV_AT_EPOCH":496,"BSTAR":0.00098219753,"MEAN_MOTION_DOT":0.00029701,"MEAN_MOTION_DDOT":0}]
