STARLINK-35455          
1 66152U 25240G   26068.27722237  .00026096  00000+0  89014-3 0  9994
2 66152  53.1588  64.8501 0001278  91.8307 268.2840 15.30198458 21920
KUIPER-00266            
1 67789U 26030AB  26067.91293632  .00029701  00000+0  98220-3 0  9996
2 67789  51.8807 223.5904 0022313  72.5291 287.8129 15.30874235  4964
